      2.10          N: GNSS NAV DATA                        RINEX VERSION / TYPE
fic2rin                                 05/29/2018 00:07:50 PGM / RUN BY / DATE
                                                            END OF HEADER
16 18  5 28  4  0  0.0 2.339575439692e-05-1.250555214938e-12 0.000000000000e+00
    2.400000000000e+01-1.534375000000e+01 4.182674225170e-09 1.776516441646e+00
   -8.847564458847e-07 1.003191235941e-02 1.499429345131e-06 5.153634319305e+03
    1.008000000000e+05-1.061707735062e-07 1.518467634455e+00 5.401670932770e-08
    9.867226409815e-01 3.677500000000e+02 5.177133006085e-01-8.214627886510e-09
   -1.392915163365e-10 1.000000000000e+00 2.003000000000e+03 0.000000000000e+00
    2.400000000000e+00 0.000000000000e+00-1.071020960808e-08 2.400000000000e+01
    9.360600000000e+04 4.000000000000e+00
 9 18  5 28  4  0  0.0 5.143261514604e-04 3.410605131648e-13 0.000000000000e+00
    3.400000000000e+01-7.562500000000e+00 4.566975947165e-09 1.014729588795e+00
   -5.643814802170e-07 9.263803949580e-04 1.023150980473e-05 5.153620077133e+03
    1.008000000000e+05-1.490116119385e-08-6.704434270941e-01 1.303851604462e-08
    9.528121662569e-01 1.775312500000e+02 1.856912782659e+00-7.931044645558e-09
   -5.968105738417e-10 1.000000000000e+00 2.003000000000e+03 0.000000000000e+00
    2.400000000000e+00 0.000000000000e+00 9.313225746155e-10 3.400000000000e+01
    9.360600000000e+04 4.000000000000e+00
14 18  5 28  4  0  0.0-9.713089093566e-05-2.273736754432e-13 0.000000000000e+00
    1.010000000000e+02 1.562500000000e-01 4.445899475273e-09 4.758905544546e-01
    1.788139343262e-07 9.897330543026e-03 1.113303005695e-05 5.153592947006e+03
    1.008000000000e+05-1.676380634308e-07-5.806605867527e-01 2.793967723846e-08
    9.611829732661e-01 1.685312500000e+02-1.951786886592e+00-8.024977129652e-09
   -6.539558113130e-10 1.000000000000e+00 2.003000000000e+03 0.000000000000e+00
    2.400000000000e+00 0.000000000000e+00-9.778887033463e-09 1.010000000000e+02
    9.360600000000e+04 4.000000000000e+00
24 18  5 28  4  0  0.0-5.033938214183e-05-5.684341886081e-13 0.000000000000e+00
    6.100000000000e+01 1.272187500000e+02 4.698409993349e-09-1.067430491382e+00
    6.567686796188e-06 6.941987667233e-03 8.566305041313e-06 5.153653179169e+03
    1.008000000000e+05 2.514570951462e-07 3.470215259252e-01-2.235174179077e-08
    9.420621804655e-01 2.065937500000e+02 5.427700312704e-01-8.208556205029e-09
    9.893269237232e-11 1.000000000000e+00 2.003000000000e+03 0.000000000000e+00
    2.400000000000e+00 0.000000000000e+00 2.793967723846e-09 6.100000000000e+01
    9.360600000000e+04 4.000000000000e+00
23 18  5 28  4  0  0.0-2.165865153074e-04 4.547473508865e-13 0.000000000000e+00
    3.900000000000e+01-5.906250000000e+00 4.895203904892e-09-4.794050542191e-01
   -3.743916749954e-07 1.253858976997e-02 9.750947356224e-06 5.153795431137e+03
    1.008000000000e+05-1.862645149231e-08-6.720741857646e-01 2.179294824600e-07
    9.436343229344e-01 1.813125000000e+02-2.360526489060e+00-8.295345534438e-09
   -6.260975080457e-10 1.000000000000e+00 2.003000000000e+03 0.000000000000e+00
    2.400000000000e+00 0.000000000000e+00-2.002343535423e-08 3.900000000000e+01
    9.360600000000e+04 4.000000000000e+00
19 18  5 28  4  0  0.0-4.329844377935e-04 2.955857780762e-12 0.000000000000e+00
    2.400000000000e+01-1.129375000000e+02 3.757656521477e-09-2.591636360560e+00
   -6.070360541344e-06 9.893743204884e-03 9.989365935326e-06 5.153723531723e+03
    1.008000000000e+05 1.471489667892e-07 2.580976730441e+00-1.303851604462e-08
    9.804560719309e-01 1.909062500000e+02 1.188194757721e+00-7.555671866918e-09
    1.821504444400e-11 1.000000000000e+00 2.003000000000e+03 0.000000000000e+00
    2.400000000000e+00 0.000000000000e+00-1.536682248116e-08 2.400000000000e+01
    9.360600000000e+04 4.000000000000e+00
21 18  5 28  4  0  0.0-3.892853856087e-04 5.115907697473e-12 0.000000000000e+00
    3.500000000000e+01 1.146875000000e+01 4.715196406857e-09-3.136632465995e+00
    4.004687070847e-07 2.439102390781e-02 1.039728522301e-05 5.153704158783e+03
    1.008000000000e+05 5.196779966354e-07-2.801664069880e+00 2.048909664154e-08
    9.441549111104e-01 1.623750000000e+02-1.555726548724e+00-7.684605808963e-09
    6.389551864768e-10 1.000000000000e+00 2.003000000000e+03 0.000000000000e+00
    2.400000000000e+00 0.000000000000e+00-1.024454832077e-08 3.500000000000e+01
    9.360600000000e+04 4.000000000000e+00
22 18  5 28  4  0  0.0-4.065525718033e-04-1.284661266254e-11 0.000000000000e+00
    7.900000000000e+01-2.187500000000e+00 6.053466436889e-09 1.643126370123e-01
   -3.725290298462e-09 7.379058748484e-03 4.263594746590e-06 5.153794048309e+03
    1.008000000000e+05-3.352761268616e-08-1.764187112903e+00-5.587935447693e-09
    9.246353868210e-01 2.808750000000e+02-1.536244150369e+00-8.943943979738e-09
    3.714440435639e-11 1.000000000000e+00 2.003000000000e+03 0.000000000000e+00
    2.400000000000e+00 0.000000000000e+00-1.769512891769e-08 7.900000000000e+01
    9.360600000000e+04 4.000000000000e+00
12 18  5 28  4  0  0.0 3.310358151793e-04-2.387423592154e-12 0.000000000000e+00
    8.200000000000e+01-2.406250000000e+01 4.134100773320e-09-2.613831137770e+00
   -1.180917024612e-06 7.210566895083e-03 1.061707735062e-06 5.153583471298e+03
    1.008000000000e+05-1.303851604462e-08 1.499555232872e+00-2.607703208923e-08
    9.863011274695e-01 3.728437500000e+02 9.856928095591e-01-8.092479941415e-09
   -2.678683006471e-11 1.000000000000e+00 2.003000000000e+03 0.000000000000e+00
    2.400000000000e+00 0.000000000000e+00-1.257285475731e-08 8.200000000000e+01
    9.360600000000e+04 4.000000000000e+00
10 18  5 28  4  0  0.0 1.865546219051e-04 1.364242052659e-12 0.000000000000e+00
    9.800000000000e+01-1.281250000000e+00 5.095569393776e-09 2.842580722611e+00
   -5.774199962616e-08 3.537321463227e-03 4.623085260391e-06 5.153655689240e+03
    1.008000000000e+05-5.401670932770e-08-1.708019622582e+00-3.911554813385e-08
    9.606259467265e-01 2.923437500000e+02-2.744210150842e+00-8.213199255573e-09
   -2.071514858337e-11 1.000000000000e+00 2.003000000000e+03 0.000000000000e+00
    2.400000000000e+00 0.000000000000e+00 1.862645149231e-09 9.800000000000e+01
    9.360600000000e+04 4.000000000000e+00
32 18  5 28  4  0  0.0-5.032923072577e-04 5.684341886081e-12 0.000000000000e+00
    7.100000000000e+01-1.487500000000e+01 4.506973447820e-09 1.549601900282e+00
   -6.742775440216e-07 2.142184996046e-03 1.095235347748e-05 5.153673397064e+03
    1.008000000000e+05-4.656612873077e-08-6.654797431253e-01 1.117587089539e-08
    9.571967892141e-01 1.684375000000e+02-2.554056218739e+00-7.936402011571e-09
   -6.621704391995e-10 1.000000000000e+00 2.003000000000e+03 0.000000000000e+00
    2.400000000000e+00 0.000000000000e+00 4.656612873077e-10 7.100000000000e+01
    9.360600000000e+04 4.000000000000e+00
26 18  5 28  4  0  0.0-1.347563229501e-04 1.261923898710e-11 0.000000000000e+00
    9.300000000000e+01 3.000000000000e+00 4.873060125371e-09 2.664389804564e+00
    1.434236764908e-07 2.791688777506e-03 7.729977369308e-07 5.153660501480e+03
    1.008000000000e+05 2.048909664154e-08 1.417763989229e+00 3.539025783539e-08
    9.555020776168e-01 3.622187500000e+02 1.279001671439e-01-8.547141737046e-09
   -7.143154683922e-13 1.000000000000e+00 2.003000000000e+03 0.000000000000e+00
    2.400000000000e+00 0.000000000000e+00 7.450580596924e-09 9.300000000000e+01
    9.360600000000e+04 4.000000000000e+00
18 18  5 28  4  0  0.0 1.451885327697e-05 4.774847184308e-12 0.000000000000e+00
    1.360000000000e+02 1.412500000000e+01 4.725553981148e-09-1.605908759883e+00
    9.965151548386e-07 1.453854690772e-02 9.628012776375e-06 5.153655300140e+03
    1.008000000000e+05 2.402812242508e-07-2.794550525389e+00 2.160668373108e-07
    9.499086805608e-01 1.858750000000e+02 1.306621219527e+00-7.938187800242e-09
    6.028822553230e-10 1.000000000000e+00 2.003000000000e+03 0.000000000000e+00
    2.400000000000e+00 0.000000000000e+00-6.984919309616e-09 1.360000000000e+02
    9.360600000000e+04 4.000000000000e+00
30 18  5 28  4  0  0.0 6.921589374542e-05-4.320099833421e-12 0.000000000000e+00
    9.600000000000e+01 1.192187500000e+02 4.678409160235e-09-1.924088299967e+00
    6.102025508881e-06 3.414645325392e-03 7.255002856255e-06 5.153738529205e+03
    1.008000000000e+05-5.401670932770e-08 4.403060698866e-01 4.097819328308e-08
    9.445489056704e-01 2.323125000000e+02-3.080539430889e+00-8.147125074747e-09
    2.257236880119e-10 1.000000000000e+00 2.003000000000e+03 0.000000000000e+00
    3.400000000000e+00 0.000000000000e+00 3.725290298462e-09 9.600000000000e+01
    9.360600000000e+04 4.000000000000e+00
29 18  5 28  4  0  0.0 4.425314255059e-04-6.480149750132e-12 0.000000000000e+00
    1.180000000000e+02-1.205000000000e+02 3.680510450891e-09 1.822273180787e+00
   -6.143003702164e-06 7.840814068913e-04 9.780749678612e-06 5.153696676254e+03
    1.008000000000e+05 1.117587089539e-08 2.544598958063e+00-1.117587089539e-08
    9.841926163272e-01 2.015625000000e+02 1.160463609464e+00-7.687463070837e-09
   -7.214586230761e-11 1.000000000000e+00 2.003000000000e+03 0.000000000000e+00
    2.400000000000e+00 0.000000000000e+00-1.024454832077e-08 1.180000000000e+02
    9.360600000000e+04 4.000000000000e+00
27 18  5 28  4  0  0.0 3.679431974888e-04-1.136868377216e-12 0.000000000000e+00
    8.700000000000e+01-1.104375000000e+02 3.953021802082e-09 8.479714004068e-01
   -5.800276994705e-06 5.964253796265e-03 8.452683687210e-06 5.153686815262e+03
    1.008000000000e+05-4.656612873077e-08 2.479948877699e+00 9.872019290924e-08
    9.775911443666e-01 2.275937500000e+02 4.251868642024e-01-7.822468694363e-09
   -1.660783464012e-10 1.000000000000e+00 2.003000000000e+03 0.000000000000e+00
    2.400000000000e+00 0.000000000000e+00 1.396983861923e-09 8.700000000000e+01
    9.360600000000e+04 4.000000000000e+00
